[

  {
    "Id":1,
    "Name":"Prince Ekwe",
    "City": "Abakaliki",
    "State": "Ebonyi",
    "Pincode": 6987,
    "MobileNo": 2347036610058
  },

  {
    "Id":2,
    "Name":"Ike Ekwe",
    "City": "Ikeja",
    "State": "Lagos",
    "Pincode": 4327,
    "MobileNo": 2347045610658
  },

  {
    "Id":3,
    "Name":"Nnenna Eze",
    "City": "Bauchi",
    "State": "Bauchi",
    "Pincode": 3798,
    "MobileNo": 2348056715076
  },

  {
    "Id":4,
    "Name":"John Olaniyi",
    "City": "Alausa",
    "State": "Lagos",
    "Pincode": 6845,
    "MobileNo": 2348034565054
  },

  {
    "Id":5,
    "Name":"Monday Pam",
    "City": "Jos",
    "State": "Plateau",
    "Pincode": 6975,
    "MobileNo": 2349056478453
  },

  {
    "Id":6,
    "Name":"Musa Aliyu",
    "City": "Lafia",
    "State": "Nassarawa",
    "Pincode": 3075,
    "MobileNo": 2349456378453
  },

  {
    "Id":7,
    "Name":"Samson Onyebuchi",
    "City": "Akure",
    "State": "Ondo",
    "Pincode": 4563,
    "MobileNo": 2347065436784
  },

  {
    "Id":8,
    "Name":"Paschal Adebitan",
    "City": "Maiduguri",
    "State": "Borno",
    "Pincode": 9087,
    "MobileNo": 2347047836745
  },

  {
    "Id":9,
    "Name":"Michael Danjuma",
    "City": "Gombe",
    "State": "Gombe",
    "Pincode": 6540,
    "MobileNo": 2347065436783
  },

  {
    "Id":10,
    "Name":"Dikachi Somptochukwu",
    "City": "Abakaliki",
    "State": "Ebonyi",
    "Pincode": 8987,
    "MobileNo": 2348034562727
  },

  {
    "Id":11,
    "Name":"Patrick Simons",
    "City": "Akure",
    "State": "Ondo",
    "Pincode": 3564,
    "MobileNo": 2349063763537
  },

  {
    "Id":12,
    "Name":"Maibalango Maigari",
    "City": "Gombe",
    "State": "Gombe",
    "Pincode": 2435,
    "MobileNo": 2347065436783
  },

  {
    "Id":13,
    "Name":"Mainasara Abdullahi",
    "City": "Maiduguri",
    "State": "Borno",
    "Pincode": 3452,
    "MobileNo": 23480764534563
  },

  {
    "Id":14,
    "Name":"Mariam Mustapha",
    "City": "Lafia",
    "State": "Nassarawa",
    "Pincode": 1276,
    "MobileNo": 2347054353637
  },

  {
    "Id":15,
    "Name":"Jennifer Pomkit",
    "City": "Jos",
    "State": "Plateau",
    "Pincode": 1122,
    "MobileNo": 2349054673545
  },

  {
    "Id":16,
    "Name":"Ndubuisis Nwite",
    "City": "Bauchi",
    "State": "Bauchi",
    "Pincode": 2441,
    "MobileNo": 2349065476453
  },

  {
    "Id":17,
    "Name":"Adeniran Festus",
    "City": "Ikeja",
    "State": "Lagos",
    "Pincode": 3425,
    "MobileNo": 2347065436785
  },

  {
    "Id":18,
    "Name":"Bukki Abdulfatai",
    "City": "Ikeja",
    "State": "Lagos",
    "Pincode": 9088,
    "MobileNo": 2347065346782
  },

  {
    "Id":19,
    "Name":"Evangel Erbawaniye",
    "City": "Ikeja",
    "State": "Lagos",
    "Pincode": 8765,
    "MobileNo": 2347065437026
  },

  {
    "Id":20,
    "Name":"Omoniyi Olorun",
    "City": "Ikeja",
    "State": "Lagos",
    "Pincode": 6666,
    "MobileNo": 2347066666667
  }


]
